QIANFAN-25              
1 61558U 24185G   25358.89328930  .00000366  00000+0  21546-3 0  9995
2 61558  88.9798  76.8170 0007271 273.0573  86.9777 14.05917746 71218
QIANFAN-26              
1 61559U 24185H   25358.87661176  .00000324  00000+0  31140-3 0  9991
2 61559  88.9807  78.4438 0004658 354.2576   5.8536 13.77819669 70345
QIANFAN-27              
1 61560U 24185J   25358.87673677  .00000530  00000+0  21055-3 0  9995
2 61560  88.9799  75.5234 0005912 239.0605 121.0008 14.27347240 71899
QIANFAN-28              
1 61561U 24185K   25358.92298896  .00000910  00000+0  36074-3 0  9997
2 61561  88.9818  75.5221 0005443 236.6461 123.4213 14.28058827 71918
QIANFAN-29              
1 61562U 24185L   25358.88528995  .00000203  00000+0  29550-3 0  9995
2 61562  88.9785  80.0585 0010198  26.8873 333.2805 13.51015986 69431
QIANFAN-30              
1 61563U 24185M   25358.86933614  .00000172  00000+0  25169-3 0  9999
2 61563  88.9805  79.5902 0007377  16.1248 344.0137 13.49990757 69707
QIANFAN-31              
1 61564U 24185N   25358.84023007  .00000097  00000+0  11810-3 0  9998
2 61564  88.9788  79.3759 0006545  11.1204 349.0094 13.57970565 69801
QIANFAN-32              
1 61565U 24185P   25358.90516533  .00000177  00000+0  25698-3 0  9995
2 61565  88.9848  79.7243 0010070  39.3034 320.8846 13.50738356 69683
